ONEWEB-0668             
1 56711U 23068B   25174.59896839  .00000021  00000+0  20580-4 0  9996
2 56711  87.9059 300.2243 0001972  83.7410 276.3945 13.16593793104598
ONEWEB-0676             
1 56712U 23068C   25174.57919522  .00000071  00000+0  15185-3 0  9999
2 56712  87.9050 300.2549 0001669 114.6745 245.4560 13.16593050104515
ONEWEB-0677             
1 56713U 23068D   25174.47831392 -.00000012  00000+0 -62152-4 0  9991
2 56713  87.9254 345.8847 0001533  91.3556 268.7753 13.20773440102450
ONEWEB-0678             
1 56714U 23068E   25174.39757196 -.00000013  00000+0 -68966-4 0  9992
2 56714  87.9058 330.7037 0002021 104.4222 255.7132 13.15547495102119
ONEWEB-0679             
1 56715U 23068F   25174.62429874 -.00000053  00000+0 -17180-3 0  9993
2 56715  87.9047 300.2378 0001429  90.5473 269.5821 13.16592805104545
ONEWEB-0680             
1 56716U 23068G   25174.37201517  .00001773  00000+0  42623-2 0  9995
2 56716  87.9241 315.5355 0001675  77.9464 282.1857 13.21813464103696
ONEWEB-0681             
1 56717U 23068H   25174.15516704  .00000034  00000+0  51213-4 0  9995
2 56717  87.9262 315.6052 0001044 118.3458 241.7781 13.21825592103656
ONEWEB-0682             
1 56718U 23068J   25174.42373136  .00000175  00000+0  43128-3 0  9997
2 56718  87.9056 330.7296 0001732  78.6354 281.4970 13.15549519102287
